NORAD_CAT_ID,OBJECT_NAME,OBJECT_TYPE,EPOCH,MEAN_MOTION,ECCENTRICITY,INCLINATION,RA_OF_ASC_NODE,ARG_OF_PERICENTER,MEAN_ANOMALY,BSTAR,MEAN_MOTION_DOT,MEAN_MOTION_DDOT,TLE_LINE0,TLE_LINE1,TLE_LINE2,SEMIMAJOR_AXIS,PERIOD,APOGEE,PERIGEE,DECAYED
53773.0,STARLINK-4718,PAYLOAD,2024-01-22 09:46:23,15.08840344,0.0001431,53.2171,173.4028,88.5114,271.6042,0.00012241,1.661e-05,0.0,0 STARLINK-4718,1 53773U 22111A   24022.40721919  .00001661  00000-0  12241-3 0  9992,2 53773  53.2171 173.4028 0001431  88.5114 271.6042 15.08840344 75402,6917.879,95.438,540.734,538.754,0.0
53773.0,STARLINK-4718,PAYLOAD,2024-01-22 16:07:55,15.08842611,0.0001245,53.2162,172.2115,90.1517,269.9618,0.00015149,2.124e-05,0.0,0 STARLINK-4718,1 53773U 22111A   24022.67217584  .00002124  00000-0  15149-3 0  9994,2 53773  53.2162 172.2115 0001245  90.1517 269.9618 15.08842611 76549,6917.872,95.437,540.599,538.876,0.0
53773.0,STARLINK-4718,PAYLOAD,2024-01-23 15:58:42,15.08851017,0.000136,53.2166,167.7511,77.9772,282.1372,3.9706e-06,-2.25e-06,0.0,0 STARLINK-4718,1 53773U 22111A   24023.66577326 -.00000225  00000-0  39706-5 0  9995,2 53773  53.2166 167.7511 0001360  77.9772 282.1372 15.08851017 75594,6917.847,95.437,540.653,538.771,0.0
53773.0,STARLINK-4718,PAYLOAD,2024-01-24 14:14:07,15.08845854,0.0001228,53.2176,163.5865,95.9303,264.1829,-0.00011904,-2.182e-05,0.0,0 STARLINK-4718,1 53773U 22111A   24024.59313771 -.00002182  00000-0 -11904-3 0  9993,2 53773  53.2176 163.5865 0001228  95.9303 264.1829 15.08845854 76831,6917.862,95.437,540.577,538.878,0.0
53773.0,STARLINK-4718,PAYLOAD,2024-01-24 15:49:30,15.08845223,0.000117,53.2175,163.2908,96.0824,264.0301,-0.00010256,-1.92e-05,0.0,0 STARLINK-4718,1 53773U 22111A   24024.65937659 -.00001920  00000-0 -10256-3 0  9995,2 53773  53.2175 163.2908 0001170  96.0824 264.0301 15.08845223 75744,6917.864,95.437,540.539,538.92,0.0
53773.0,STARLINK-4718,PAYLOAD,2024-01-25 12:29:31,15.08837816,0.0001259,53.2181,159.4282,98.771,261.3424,-4.7519e-05,-1.044e-05,0.0,0 STARLINK-4718,1 53773U 22111A   24025.52050238 -.00001044  00000-0 -47519-4 0  9991,2 53773  53.2181 159.4282 0001259  98.7710 261.3424 15.08837816 75873,6917.887,95.438,540.623,538.881,0.0
53773.0,STARLINK-4718,PAYLOAD,2024-01-25 14:04:54,15.08838074,0.000123,53.2179,159.131,87.5658,272.5475,-4.0864e-05,-9.38e-06,0.0,0 STARLINK-4718,1 53773U 22111A   24025.58674228 -.00000938  00000-0 -40864-4 0  9995,2 53773  53.2179 159.1310 0001230  87.5658 272.5475 15.08838074 76985,6917.886,95.438,540.602,538.9,0.0
53773.0,STARLINK-4718,PAYLOAD,2024-01-25 15:40:17,15.08839022,0.0001261,53.2182,158.8336,89.9662,270.1475,-2.9165e-05,-7.52e-06,0.0,0 STARLINK-4718,1 53773U 22111A   24025.65298136 -.00000752  00000-0 -29165-4 0  9998,2 53773  53.2182 158.8336 0001261  89.9662 270.1475 15.08839022 76997,6917.883,95.438,540.621,538.876,0.0
53773.0,STARLINK-4718,PAYLOAD,2024-01-26 13:55:41,15.08841049,0.0001355,53.218,154.6725,92.9418,267.173,0.00010308,1.353e-05,0.0,0 STARLINK-4718,1 53773U 22111A   24026.58033733  .00001353  00000-0  10308-3 0  9995,2 53773  53.2180 154.6725 0001355  92.9418 267.1730 15.08841049 77137,6917.877,95.437,540.68,538.805,0.0
53773.0,STARLINK-4718,PAYLOAD,2024-01-26 15:31:04,15.0884386,0.0001388,53.2181,154.3745,93.0683,267.0468,0.00012761,1.744e-05,0.0,0 STARLINK-4718,1 53773U 22111A   24026.64657478  .00001744  00000-0  12761-3 0  9999,2 53773  53.2181 154.3745 0001388  93.0683 267.0468 15.08843860 76048,6917.869,95.437,540.694,538.773,0.0
53773.0,STARLINK-4718,PAYLOAD,2024-01-27 12:11:05,15.08838615,0.0001355,53.2178,150.5086,88.9734,271.1413,2.3888e-05,9.2e-07,0.0,0 STARLINK-4718,1 53773U 22111A   24027.50770357  .00000092  00000-0  23888-4 0  9995,2 53773  53.2178 150.5086 0001355  88.9734 271.1413 15.08838615 76176,6917.885,95.438,540.687,538.812,0.0
53773.0,STARLINK-4718,PAYLOAD,2024-01-27 13:46:28,15.08838959,0.0001375,53.2179,150.2118,87.2728,272.8422,2.6797e-05,1.39e-06,0.0,0 STARLINK-4718,1 53773U 22111A   24027.57394346  .00000139  00000-0  26797-4 0  9996,2 53773  53.2179 150.2118 0001375  87.2728 272.8422 15.08838959 77289,6917.884,95.438,540.7,538.797,0.0
53773.0,STARLINK-4718,PAYLOAD,2024-01-27 18:32:37,15.08841261,0.0001299,53.2173,149.3116,87.2958,272.8183,3.4183e-05,2.56e-06,0.0,0 STARLINK-4718,1 53773U 22111A   24027.77266068  .00000256  00000-0  34183-4 0  9995,2 53773  53.2173 149.3116 0001299  87.2958 272.8183 15.08841261 77318,6917.877,95.437,540.64,538.843,0.0
53773.0,STARLINK-4718,PAYLOAD,2024-01-28 13:37:16,15.08830811,0.0001598,53.2166,145.7454,113.5097,246.6063,-0.00017414,-3.058e-05,0.0,0 STARLINK-4718,1 53773U 22111A   24028.56755294 -.00003058  00000-0 -17414-3 0  9999,2 53773  53.2166 145.7454 0001598 113.5097 246.6063 15.08830811 77432,6917.908,95.438,540.879,538.668,0.0
53773.0,STARLINK-4718,PAYLOAD,2024-01-28 16:48:01,15.08865087,0.0001766,53.2177,145.1544,64.9433,295.1742,-0.00010211,-1.914e-05,0.0,0 STARLINK-4718,1 53773U 22111A   24028.70001427 -.00001914  00000-0 -10211-3 0  9994,2 53773  53.2177 145.1544 0001766  64.9433 295.1742 15.08865087 76354,6917.804,95.436,540.89,538.447,0.0
53773.0,STARLINK-4718,PAYLOAD,2024-01-29 11:52:39,15.08845964,0.0001345,53.2167,141.5869,70.702,289.4118,-1.4712e-05,-5.22e-06,0.0,0 STARLINK-4718,1 53773U 22111A   24029.49490210 -.00000522  00000-0 -14712-4 0  9998,2 53773  53.2167 141.5869 0001345  70.7020 289.4118 15.08845964 76471,6917.862,95.437,540.658,538.797,0.0
53773.0,STARLINK-4718,PAYLOAD,2024-01-30 11:43:27,15.08838298,0.0001612,53.2183,137.1269,57.1484,302.9663,9.8507e-07,-2.72e-06,0.0,0 STARLINK-4718,1 53773U 22111A   24030.48850994 -.00000272  00000-0  98507-6 0  9995,2 53773  53.2183 137.1269 0001612  57.1484 302.9663 15.08838298 76629,6917.886,95.438,540.866,538.635,0.0
53773.0,STARLINK-4718,PAYLOAD,2024-01-30 13:18:50,15.08838761,0.0001689,53.2176,136.8288,65.3558,294.761,6.0904e-06,-1.91e-06,0.0,0 STARLINK-4718,1 53773U 22111A   24030.55474918 -.00000191  00000-0  60904-5 0  9990,2 53773  53.2176 136.8288 0001689  65.3558 294.7610 15.08838761 77733,6917.884,95.438,540.918,538.581,0.0
53773.0,STARLINK-4718,PAYLOAD,2024-01-31 11:34:14,15.0883989,0.0001474,53.2175,132.6648,83.0901,277.0259,1.2927e-05,-8.2e-07,0.0,0 STARLINK-4718,1 53773U 22111A   24031.48210672 -.00000082  00000-0  12927-4 0  9998,2 53773  53.2175 132.6648 0001474  83.0901 277.0259 15.08839890 77879,6917.881,95.438,540.765,538.726,0.0
53773.0,STARLINK-4718,PAYLOAD,2024-01-31 16:20:22,15.08844723,0.0001506,53.2166,131.771,95.8177,264.2986,4.5645e-05,4.39e-06,0.0,0 STARLINK-4718,1 53773U 22111A   24031.68082145  .00000439  00000-0  45645-4 0  9990,2 53773  53.2166 131.7710 0001506  95.8177 264.2986 15.08844723 76809,6917.866,95.437,540.773,538.689,0.0
53773.0,STARLINK-4718,PAYLOAD,2024-02-01 11:25:01,15.08836238,0.0001717,53.2178,128.1994,116.3995,243.7173,8.5718e-06,-1.52e-06,0.0,0 STARLINK-4718,1 53773U 22111A   24032.47570736 -.00000152  00000-0  85718-5 0  9995,2 53773  53.2178 128.1994 0001717 116.3995 243.7173 15.08836238 76922,6917.892,95.438,540.945,538.569,0.0
53773.0,STARLINK-4718,PAYLOAD,2024-02-01 14:35:47,15.08836641,0.0001672,53.2177,127.6046,114.7692,245.3474,1.0377e-05,-1.23e-06,0.0,0 STARLINK-4718,1 53773U 22111A   24032.60818746 -.00000123  00000-0  10377-4 0  9992,2 53773  53.2177 127.6046 0001672 114.7692 245.3474 15.08836641 78044,6917.891,95.438,540.912,538.599,0.0
53773.0,STARLINK-4718,PAYLOAD,2024-02-02 12:51:11,15.08841272,0.0001675,53.2178,123.4407,112.4057,247.7113,4.1509e-05,3.73e-06,0.0,0 STARLINK-4718,1 53773U 22111A   24033.53554445  .00000373  00000-0  41509-4 0  9995,2 53773  53.2178 123.4407 0001675 112.4057 247.7113 15.08841272 78180,6917.877,95.437,540.9,538.583,0.0
53773.0,STARLINK-4718,PAYLOAD,2024-02-03 04:45:03,15.08832754,0.0001554,53.2172,120.4687,117.9603,242.1546,7.8317e-06,-1.63e-06,0.0,0 STARLINK-4718,1 53773U 22111A   24034.19795164 -.00000163  00000-0  78317-5 0  9999,2 53773  53.2172 120.4687 0001554 117.9603 242.1546 15.08832754 77187,6917.903,95.438,540.843,538.692,0.0
53773.0,STARLINK-4718,PAYLOAD,2024-02-03 12:41:58,15.08838584,0.000146,53.2173,118.984,106.8391,253.2762,2.8444e-05,1.65e-06,0.0,0 STARLINK-4718,1 53773U 22111A   24034.52914875  .00000165  00000-0  28444-4 0  9994,2 53773  53.2173 118.9840 0001460 106.8391 253.2762 15.08838584 78336,6917.885,95.438,540.76,538.74,0.0
53773.0,STARLINK-4718,PAYLOAD,2024-02-04 12:32:45,15.08810412,0.0001654,53.2179,114.5252,99.2866,260.8313,0.00051667,7.938e-05,0.0,0 STARLINK-4718,1 53773U 22111A   24035.52274962  .00007938  00000-0  51667-3 0  9998,2 53773  53.2179 114.5252 0001654  99.2866 260.8313 15.08810412 77388,6917.971,95.439,540.98,538.692,0.0
53773.0,STARLINK-4718,PAYLOAD,2024-02-05 12:23:32,15.08840096,0.0001657,53.2177,110.0638,91.2496,268.8686,-3.9777e-06,-3.51e-06,0.0,0 STARLINK-4718,1 53773U 22111A   24036.51635210 -.00000351  00000-0 -39777-5 0  9999,2 53773  53.2177 110.0638 0001657  91.2496 268.8686 15.08840096 77538,6917.88,95.438,540.891,538.599,0.0
53773.0,STARLINK-4718,PAYLOAD,2024-02-06 12:14:19,15.08843524,0.0001861,53.2179,105.602,74.652,285.4677,3.2114e-05,2.23e-06,0.0,0 STARLINK-4718,1 53773U 22111A   24037.50995082  .00000223  00000-0  32114-4 0  9998,2 53773  53.2179 105.6020 0001861  74.6520 285.4677 15.08843524 78787,6917.87,95.437,541.022,538.447,0.0
53773.0,STARLINK-4718,PAYLOAD,2024-02-07 04:08:11,15.0882507,0.0001756,53.2169,102.6346,70.4775,289.6406,0.00024812,3.661e-05,0.0,0 STARLINK-4718,1 53773U 22111A   24038.17235205  .00003661  00000-0  24812-3 0  9990,2 53773  53.2169 102.6346 0001756  70.4775 289.6406 15.08825070 77784,6917.926,95.438,541.006,538.576,0.0
53773.0,STARLINK-4718,PAYLOAD,2024-02-07 10:29:43,15.0884346,0.0001489,53.2162,101.4414,88.8555,271.2608,1.4352e-05,-6e-07,0.0,0 STARLINK-4718,1 53773U 22111A   24038.43731053 -.00000060  00000-0  14352-4 0  9991,2 53773  53.2162 101.4414 0001489  88.8555 271.2608 15.08843460 78923,6917.87,95.437,540.765,538.705,0.0
